[{"OBJECT_NAME":"STARLINK-5907","OBJECT_ID":"2023-042AM","EPOCH":"2026-03-09T22:00:01.999584","MEAN_MOTION":15.06161457,"ECCENTRICITY":0.00017709,"INCLINATION":43.0007,"RA_OF_ASC_NODE":42.0942,"ARG_OF_PERICENTER":238.8066,"MEAN_ANOMALY":56.5127,"EPHEMERIS_TYPE":0,"CLASSIFICATION_TYPE":"U","NORAD_CAT_ID":56021,"ELEMENT_SET_NO":999,"REV_AT_EPOCH":577,"BSTAR":0.0039915251,"MEAN_MOTION_DOT":0.0005971,"MEAN_MOTION_DDOT":0},{"OBJECT_NAME":"LEMUR-2-SIERRINI","OBJECT_ID":"2024-149DR","EPOCH":"2026-03-09T19:24:50.445216","MEAN_MOTION":15.08682764,"ECCENTRICITY":0.00065795,"INCLINATION":97.6873,"RA_OF_ASC_NODE":151.1225,"ARG_OF_PERICENTER":147.8458,"MEAN_ANOMALY":212.3173,"EPHEMERIS_TYPE":0,"CLASSIFICATION_TYPE":"U","NORAD_CAT_ID":60579,"ELEMENT_SET_NO":999,"REV_AT_EPOCH":8546,"BSTAR":0.00092040134,"MEAN_MOTION_DOT":0.00014386,"MEAN_MOTION_DDOT":0}]
